STARLINK-36461          
1 67316U 26002M   26015.58335648 -.01368670  00000+0 -57620-2 0  9993
2 67316  42.9974 272.1769 0001712 268.7322 216.6074 15.87260251  3034
STARLINK-36450          
1 67317U 26002N   26015.58335648 -.01379594  00000+0 -58099-2 0  9992
2 67317  42.9974 272.1711 0001689 271.0943 216.5780 15.87277245  3035
STARLINK-36498          
1 67318U 26002P   26015.58335648 -.01396485  00000+0 -58888-2 0  9997
2 67318  42.9972 272.1584 0001519 271.2251 221.4036 15.87288680  2930
STARLINK-36470          
1 67319U 26002Q   26015.58335648 -.01387453  00000+0 -58463-2 0  9992
2 67319  42.9974 272.1648 0001686 269.4990 220.6540 15.87282372  2931
STARLINK-36500          
1 67320U 26002R   26015.58335648 -.01396722  00000+0 -58888-2 0  9994
2 67320  42.9975 272.1529 0001688 260.5435 234.4981 15.87290465  2945
STARLINK-36462          
1 67321U 26002S   26015.58335648 -.01411772  00000+0 -59594-2 0  9993
2 67321  42.9977 272.1399 0001699 260.4967 239.6210 15.87298370  2882
STARLINK-36434          
1 67322U 26002T   26015.58335648 -.01410162  00000+0 -59584-2 0  9995
2 67322  42.9977 272.1446 0001675 262.3365 235.8893 15.87275877  2885
STARLINK-36497          
1 67323U 26002U   26015.58335648 -.01420221  00000+0 -59990-2 0  9994
2 67323  42.9979 272.1334 0001663 269.7705 232.8491 15.87303710  2946
STARLINK-36471          
1 67324U 26002V   26015.58335648 -.01439497  00000+0 -60986-2 0  9997
2 67324  42.9982 272.1188 0001641 269.1860 239.3759 15.87286079  2880
STARLINK-36473          
1 67325U 26002W   26015.58335648 -.01430515  00000+0 -60535-2 0  9990
2 67325  42.9977 272.1257 0001734 269.2485 236.5770 15.87288773  3032
STARLINK-36430          
1 67326U 26002X   26015.58335648 -.01458938  00000+0 -61945-2 0  9996
2 67326  42.9979 272.1046 0001684 265.7876 248.3325 15.87284015  3032
STARLINK-36501          
1 67327U 26002Y   26015.58335648 -.01449759  00000+0 -61479-2 0  9990
2 67327  42.9981 272.1119 0001681 267.2586 243.9853 15.87288823  2889
