CCSDS_OMM_VERS = 2.0
CREATION_DATE  = 
ORIGINATOR     = 

OBJECT_NAME    = STARLINK-36461
OBJECT_ID      = 2026-002M
CENTER_NAME    = EARTH
REF_FRAME      = TEME
TIME_SYSTEM    = UTC
MEAN_ELEMENT_THEORY = SGP/SGP4

EPOCH          = 2026-01-15T14:00:01.999872
MEAN_MOTION    = 15.87260251
ECCENTRICITY   = .00017123
INCLINATION    = 42.9974
RA_OF_ASC_NODE = 272.1769
ARG_OF_PERICENTER = 268.7322
MEAN_ANOMALY   = 216.6074

EPHEMERIS_TYPE = 0
CLASSIFICATION_TYPE = U
NORAD_CAT_ID   = 67316
ELEMENT_SET_NO = 999
REV_AT_EPOCH   = 303
BSTAR          = -.57620349E-2
MEAN_MOTION_DOT = -.136867E-1
MEAN_MOTION_DDOT = 0

CCSDS_OMM_VERS = 2.0
CREATION_DATE  = 
ORIGINATOR     = 

OBJECT_NAME    = STARLINK-36450
OBJECT_ID      = 2026-002N
CENTER_NAME    = EARTH
REF_FRAME      = TEME
TIME_SYSTEM    = UTC
MEAN_ELEMENT_THEORY = SGP/SGP4

EPOCH          = 2026-01-15T14:00:01.999872
MEAN_MOTION    = 15.87277245
ECCENTRICITY   = .00016891
INCLINATION    = 42.9974
RA_OF_ASC_NODE = 272.1711
ARG_OF_PERICENTER = 271.0943
MEAN_ANOMALY   = 216.5780

EPHEMERIS_TYPE = 0
CLASSIFICATION_TYPE = U
NORAD_CAT_ID   = 67317
ELEMENT_SET_NO = 999
REV_AT_EPOCH   = 303
BSTAR          = -.58098678E-2
MEAN_MOTION_DOT = -.1379594E-1
MEAN_MOTION_DDOT = 0

CCSDS_OMM_VERS = 2.0
CREATION_DATE  = 
ORIGINATOR     = 

OBJECT_NAME    = STARLINK-36498
OBJECT_ID      = 2026-002P
CENTER_NAME    = EARTH
REF_FRAME      = TEME
TIME_SYSTEM    = UTC
MEAN_ELEMENT_THEORY = SGP/SGP4

EPOCH          = 2026-01-15T14:00:01.999872
MEAN_MOTION    = 15.87288680
ECCENTRICITY   = .00015195
INCLINATION    = 42.9972
RA_OF_ASC_NODE = 272.1584
ARG_OF_PERICENTER = 271.2251
MEAN_ANOMALY   = 221.4036

EPHEMERIS_TYPE = 0
CLASSIFICATION_TYPE = U
NORAD_CAT_ID   = 67318
ELEMENT_SET_NO = 999
REV_AT_EPOCH   = 293
BSTAR          = -.58888352E-2
MEAN_MOTION_DOT = -.1396485E-1
MEAN_MOTION_DDOT = 0

CCSDS_OMM_VERS = 2.0
CREATION_DATE  = 
ORIGINATOR     = 

OBJECT_NAME    = STARLINK-36470
OBJECT_ID      = 2026-002Q
CENTER_NAME    = EARTH
REF_FRAME      = TEME
TIME_SYSTEM    = UTC
MEAN_ELEMENT_THEORY = SGP/SGP4

EPOCH          = 2026-01-15T14:00:01.999872
MEAN_MOTION    = 15.87282372
ECCENTRICITY   = .00016869
INCLINATION    = 42.9974
RA_OF_ASC_NODE = 272.1648
ARG_OF_PERICENTER = 269.4990
MEAN_ANOMALY   = 220.6540

EPHEMERIS_TYPE = 0
CLASSIFICATION_TYPE = U
NORAD_CAT_ID   = 67319
ELEMENT_SET_NO = 999
REV_AT_EPOCH   = 293
BSTAR          = -.58463412E-2
MEAN_MOTION_DOT = -.1387453E-1
MEAN_MOTION_DDOT = 0

CCSDS_OMM_VERS = 2.0
CREATION_DATE  = 
ORIGINATOR     = 

OBJECT_NAME    = STARLINK-36500
OBJECT_ID      = 2026-002R
CENTER_NAME    = EARTH
REF_FRAME      = TEME
TIME_SYSTEM    = UTC
MEAN_ELEMENT_THEORY = SGP/SGP4

EPOCH          = 2026-01-15T14:00:01.999872
MEAN_MOTION    = 15.87290465
ECCENTRICITY   = .00016883
INCLINATION    = 42.9975
RA_OF_ASC_NODE = 272.1529
ARG_OF_PERICENTER = 260.5435
MEAN_ANOMALY   = 234.4981

EPHEMERIS_TYPE = 0
CLASSIFICATION_TYPE = U
NORAD_CAT_ID   = 67320
ELEMENT_SET_NO = 999
REV_AT_EPOCH   = 294
BSTAR          = -.58888031E-2
MEAN_MOTION_DOT = -.1396722E-1
MEAN_MOTION_DDOT = 0

CCSDS_OMM_VERS = 2.0
CREATION_DATE  = 
ORIGINATOR     = 

OBJECT_NAME    = STARLINK-36462
OBJECT_ID      = 2026-002S
CENTER_NAME    = EARTH
REF_FRAME      = TEME
TIME_SYSTEM    = UTC
MEAN_ELEMENT_THEORY = SGP/SGP4

EPOCH          = 2026-01-15T14:00:01.999872
MEAN_MOTION    = 15.87298370
ECCENTRICITY   = .00016998
INCLINATION    = 42.9977
RA_OF_ASC_NODE = 272.1399
ARG_OF_PERICENTER = 260.4967
MEAN_ANOMALY   = 239.6210

EPHEMERIS_TYPE = 0
CLASSIFICATION_TYPE = U
NORAD_CAT_ID   = 67321
ELEMENT_SET_NO = 999
REV_AT_EPOCH   = 288
BSTAR          = -.59594119E-2
MEAN_MOTION_DOT = -.1411772E-1
MEAN_MOTION_DDOT = 0

CCSDS_OMM_VERS = 2.0
CREATION_DATE  = 
ORIGINATOR     = 

OBJECT_NAME    = STARLINK-36434
OBJECT_ID      = 2026-002T
CENTER_NAME    = EARTH
REF_FRAME      = TEME
TIME_SYSTEM    = UTC
MEAN_ELEMENT_THEORY = SGP/SGP4

EPOCH          = 2026-01-15T14:00:01.999872
MEAN_MOTION    = 15.87275877
ECCENTRICITY   = .00016759
INCLINATION    = 42.9977
RA_OF_ASC_NODE = 272.1446
ARG_OF_PERICENTER = 262.3365
MEAN_ANOMALY   = 235.8893

EPHEMERIS_TYPE = 0
CLASSIFICATION_TYPE = U
NORAD_CAT_ID   = 67322
ELEMENT_SET_NO = 999
REV_AT_EPOCH   = 288
BSTAR          = -.59584049E-2
MEAN_MOTION_DOT = -.1410162E-1
MEAN_MOTION_DDOT = 0

CCSDS_OMM_VERS = 2.0
CREATION_DATE  = 
ORIGINATOR     = 

OBJECT_NAME    = STARLINK-36497
OBJECT_ID      = 2026-002U
CENTER_NAME    = EARTH
REF_FRAME      = TEME
TIME_SYSTEM    = UTC
MEAN_ELEMENT_THEORY = SGP/SGP4

EPOCH          = 2026-01-15T14:00:01.999872
MEAN_MOTION    = 15.87303710
ECCENTRICITY   = .00016639
INCLINATION    = 42.9979
RA_OF_ASC_NODE = 272.1334
ARG_OF_PERICENTER = 269.7705
MEAN_ANOMALY   = 232.8491

EPHEMERIS_TYPE = 0
CLASSIFICATION_TYPE = U
NORAD_CAT_ID   = 67323
ELEMENT_SET_NO = 999
REV_AT_EPOCH   = 294
BSTAR          = -.59990465E-2
MEAN_MOTION_DOT = -.1420221E-1
MEAN_MOTION_DDOT = 0

CCSDS_OMM_VERS = 2.0
CREATION_DATE  = 
ORIGINATOR     = 

OBJECT_NAME    = STARLINK-36471
OBJECT_ID      = 2026-002V
CENTER_NAME    = EARTH
REF_FRAME      = TEME
TIME_SYSTEM    = UTC
MEAN_ELEMENT_THEORY = SGP/SGP4

EPOCH          = 2026-01-15T14:00:01.999872
MEAN_MOTION    = 15.87286079
ECCENTRICITY   = .00016418
INCLINATION    = 42.9982
RA_OF_ASC_NODE = 272.1188
ARG_OF_PERICENTER = 269.1860
MEAN_ANOMALY   = 239.3759

EPHEMERIS_TYPE = 0
CLASSIFICATION_TYPE = U
NORAD_CAT_ID   = 67324
ELEMENT_SET_NO = 999
REV_AT_EPOCH   = 288
BSTAR          = -.60985876E-2
MEAN_MOTION_DOT = -.1439497E-1
MEAN_MOTION_DDOT = 0

CCSDS_OMM_VERS = 2.0
CREATION_DATE  = 
ORIGINATOR     = 

OBJECT_NAME    = STARLINK-36473
OBJECT_ID      = 2026-002W
CENTER_NAME    = EARTH
REF_FRAME      = TEME
TIME_SYSTEM    = UTC
MEAN_ELEMENT_THEORY = SGP/SGP4

EPOCH          = 2026-01-15T14:00:01.999872
MEAN_MOTION    = 15.87288773
ECCENTRICITY   = .00017342
INCLINATION    = 42.9977
RA_OF_ASC_NODE = 272.1257
ARG_OF_PERICENTER = 269.2485
MEAN_ANOMALY   = 236.5770

EPHEMERIS_TYPE = 0
CLASSIFICATION_TYPE = U
NORAD_CAT_ID   = 67325
ELEMENT_SET_NO = 999
REV_AT_EPOCH   = 303
BSTAR          = -.60534619E-2
MEAN_MOTION_DOT = -.1430515E-1
MEAN_MOTION_DDOT = 0

CCSDS_OMM_VERS = 2.0
CREATION_DATE  = 
ORIGINATOR     = 

OBJECT_NAME    = STARLINK-36430
OBJECT_ID      = 2026-002X
CENTER_NAME    = EARTH
REF_FRAME      = TEME
TIME_SYSTEM    = UTC
MEAN_ELEMENT_THEORY = SGP/SGP4

EPOCH          = 2026-01-15T14:00:01.999872
MEAN_MOTION    = 15.87284015
ECCENTRICITY   = .00016845
INCLINATION    = 42.9979
RA_OF_ASC_NODE = 272.1046
ARG_OF_PERICENTER = 265.7876
MEAN_ANOMALY   = 248.3325

EPHEMERIS_TYPE = 0
CLASSIFICATION_TYPE = U
NORAD_CAT_ID   = 67326
ELEMENT_SET_NO = 999
REV_AT_EPOCH   = 303
BSTAR          = -.61944516E-2
MEAN_MOTION_DOT = -.1458938E-1
MEAN_MOTION_DDOT = 0

CCSDS_OMM_VERS = 2.0
CREATION_DATE  = 
ORIGINATOR     = 

OBJECT_NAME    = STARLINK-36501
OBJECT_ID      = 2026-002Y
CENTER_NAME    = EARTH
REF_FRAME      = TEME
TIME_SYSTEM    = UTC
MEAN_ELEMENT_THEORY = SGP/SGP4

EPOCH          = 2026-01-15T14:00:01.999872
MEAN_MOTION    = 15.87288823
ECCENTRICITY   = .00016811
INCLINATION    = 42.9981
RA_OF_ASC_NODE = 272.1119
ARG_OF_PERICENTER = 267.2586
MEAN_ANOMALY   = 243.9853

EPHEMERIS_TYPE = 0
CLASSIFICATION_TYPE = U
NORAD_CAT_ID   = 67327
ELEMENT_SET_NO = 999
REV_AT_EPOCH   = 288
BSTAR          = -.61478749E-2
MEAN_MOTION_DOT = -.1449759E-1
MEAN_MOTION_DDOT = 0

